CCSDS_OMM_VERS = 2.0
CREATION_DATE  = 
ORIGINATOR     = 

OBJECT_NAME    = STARLINK-35131
OBJECT_ID      = 2025-235T
CENTER_NAME    = EARTH
REF_FRAME      = TEME
TIME_SYSTEM    = UTC
MEAN_ELEMENT_THEORY = SGP/SGP4

EPOCH          = 2025-11-05T22:00:01.999584
MEAN_MOTION    = 15.64276758
ECCENTRICITY   = .0001205
INCLINATION    = 53.1603
RA_OF_ASC_NODE = 103.3000
ARG_OF_PERICENTER = 60.0063
MEAN_ANOMALY   = 72.4480

EPHEMERIS_TYPE = 0
CLASSIFICATION_TYPE = U
NORAD_CAT_ID   = 66075
ELEMENT_SET_NO = 999
REV_AT_EPOCH   = 395
BSTAR          = -.22497755E-1
MEAN_MOTION_DOT = -.1932902E-1
MEAN_MOTION_DDOT = 0

CCSDS_OMM_VERS = 2.0
CREATION_DATE  = 
ORIGINATOR     = 

OBJECT_NAME    = STARLINK-34801
OBJECT_ID      = 2025-235U
CENTER_NAME    = EARTH
REF_FRAME      = TEME
TIME_SYSTEM    = UTC
MEAN_ELEMENT_THEORY = SGP/SGP4

EPOCH          = 2025-11-05T22:00:01.999584
MEAN_MOTION    = 15.64278726
ECCENTRICITY   = .00011975
INCLINATION    = 53.1601
RA_OF_ASC_NODE = 103.3086
ARG_OF_PERICENTER = 61.4212
MEAN_ANOMALY   = 67.1969

EPHEMERIS_TYPE = 0
CLASSIFICATION_TYPE = U
NORAD_CAT_ID   = 66076
ELEMENT_SET_NO = 999
REV_AT_EPOCH   = 395
BSTAR          = -.22508517E-1
MEAN_MOTION_DOT = -.1933847E-1
MEAN_MOTION_DDOT = 0

CCSDS_OMM_VERS = 2.0
CREATION_DATE  = 
ORIGINATOR     = 

OBJECT_NAME    = STARLINK-35129
OBJECT_ID      = 2025-235V
CENTER_NAME    = EARTH
REF_FRAME      = TEME
TIME_SYSTEM    = UTC
MEAN_ELEMENT_THEORY = SGP/SGP4

EPOCH          = 2025-11-05T22:00:01.999584
MEAN_MOTION    = 15.64278281
ECCENTRICITY   = .00011832
INCLINATION    = 53.1603
RA_OF_ASC_NODE = 103.3051
ARG_OF_PERICENTER = 59.4292
MEAN_ANOMALY   = 71.1086

EPHEMERIS_TYPE = 0
CLASSIFICATION_TYPE = U
NORAD_CAT_ID   = 66077
ELEMENT_SET_NO = 999
REV_AT_EPOCH   = 395
BSTAR          = -.22537954E-1
MEAN_MOTION_DOT = -.1936039E-1
MEAN_MOTION_DDOT = 0

CCSDS_OMM_VERS = 2.0
CREATION_DATE  = 
ORIGINATOR     = 

OBJECT_NAME    = STARLINK-35116
OBJECT_ID      = 2025-235W
CENTER_NAME    = EARTH
REF_FRAME      = TEME
TIME_SYSTEM    = UTC
MEAN_ELEMENT_THEORY = SGP/SGP4

EPOCH          = 2025-11-05T22:00:01.999584
MEAN_MOTION    = 15.64278373
ECCENTRICITY   = .00012228
INCLINATION    = 53.1600
RA_OF_ASC_NODE = 103.2914
ARG_OF_PERICENTER = 59.8368
MEAN_ANOMALY   = 76.4492

EPHEMERIS_TYPE = 0
CLASSIFICATION_TYPE = U
NORAD_CAT_ID   = 66078
ELEMENT_SET_NO = 999
REV_AT_EPOCH   = 395
BSTAR          = -.22508334E-1
MEAN_MOTION_DOT = -.1933827E-1
MEAN_MOTION_DDOT = 0

CCSDS_OMM_VERS = 2.0
CREATION_DATE  = 
ORIGINATOR     = 

OBJECT_NAME    = STARLINK-35402
OBJECT_ID      = 2025-235X
CENTER_NAME    = EARTH
REF_FRAME      = TEME
TIME_SYSTEM    = UTC
MEAN_ELEMENT_THEORY = SGP/SGP4

EPOCH          = 2025-11-05T22:00:01.999584
MEAN_MOTION    = 15.64278716
ECCENTRICITY   = .00012379
INCLINATION    = 53.1602
RA_OF_ASC_NODE = 103.2878
ARG_OF_PERICENTER = 58.5876
MEAN_ANOMALY   = 79.6179

EPHEMERIS_TYPE = 0
CLASSIFICATION_TYPE = U
NORAD_CAT_ID   = 66079
ELEMENT_SET_NO = 999
REV_AT_EPOCH   = 395
BSTAR          = -.22553321E-1
MEAN_MOTION_DOT = -.1937272E-1
MEAN_MOTION_DDOT = 0

CCSDS_OMM_VERS = 2.0
CREATION_DATE  = 
ORIGINATOR     = 

OBJECT_NAME    = STARLINK-35325
OBJECT_ID      = 2025-235Y
CENTER_NAME    = EARTH
REF_FRAME      = TEME
TIME_SYSTEM    = UTC
MEAN_ELEMENT_THEORY = SGP/SGP4

EPOCH          = 2025-11-05T22:00:01.999584
MEAN_MOTION    = 15.64276796
ECCENTRICITY   = .00012088
INCLINATION    = 53.1600
RA_OF_ASC_NODE = 103.2952
ARG_OF_PERICENTER = 60.2276
MEAN_ANOMALY   = 74.1436

EPHEMERIS_TYPE = 0
CLASSIFICATION_TYPE = U
NORAD_CAT_ID   = 66080
ELEMENT_SET_NO = 999
REV_AT_EPOCH   = 395
BSTAR          = -.22500627E-1
MEAN_MOTION_DOT = -.1933125E-1
MEAN_MOTION_DDOT = 0

CCSDS_OMM_VERS = 2.0
CREATION_DATE  = 
ORIGINATOR     = 

OBJECT_NAME    = STARLINK-35403
OBJECT_ID      = 2025-235Z
CENTER_NAME    = EARTH
REF_FRAME      = TEME
TIME_SYSTEM    = UTC
MEAN_ELEMENT_THEORY = SGP/SGP4

EPOCH          = 2025-11-05T22:00:01.999584
MEAN_MOTION    = 15.64279139
ECCENTRICITY   = .00011999
INCLINATION    = 53.1602
RA_OF_ASC_NODE = 103.2813
ARG_OF_PERICENTER = 60.0587
MEAN_ANOMALY   = 81.9798

EPHEMERIS_TYPE = 0
CLASSIFICATION_TYPE = U
NORAD_CAT_ID   = 66081
ELEMENT_SET_NO = 999
REV_AT_EPOCH   = 395
BSTAR          = -.22553661E-1
MEAN_MOTION_DOT = -.19373E-1
MEAN_MOTION_DDOT = 0

CCSDS_OMM_VERS = 2.0
CREATION_DATE  = 
ORIGINATOR     = 

OBJECT_NAME    = STARLINK-35011
OBJECT_ID      = 2025-235AA
CENTER_NAME    = EARTH
REF_FRAME      = TEME
TIME_SYSTEM    = UTC
MEAN_ELEMENT_THEORY = SGP/SGP4

EPOCH          = 2025-11-05T22:00:01.999584
MEAN_MOTION    = 15.64279072
ECCENTRICITY   = .00012088
INCLINATION    = 53.1600
RA_OF_ASC_NODE = 103.2835
ARG_OF_PERICENTER = 59.8136
MEAN_ANOMALY   = 80.3082

EPHEMERIS_TYPE = 0
CLASSIFICATION_TYPE = U
NORAD_CAT_ID   = 66082
ELEMENT_SET_NO = 999
REV_AT_EPOCH   = 395
BSTAR          = -.22556312E-1
MEAN_MOTION_DOT = -.1937503E-1
MEAN_MOTION_DDOT = 0

CCSDS_OMM_VERS = 2.0
CREATION_DATE  = 
ORIGINATOR     = 

OBJECT_NAME    = STARLINK-35291
OBJECT_ID      = 2025-235AB
CENTER_NAME    = EARTH
REF_FRAME      = TEME
TIME_SYSTEM    = UTC
MEAN_ELEMENT_THEORY = SGP/SGP4

EPOCH          = 2025-11-05T22:00:01.999584
MEAN_MOTION    = 15.64274170
ECCENTRICITY   = .0001223
INCLINATION    = 53.1600
RA_OF_ASC_NODE = 103.2760
ARG_OF_PERICENTER = 58.1375
MEAN_ANOMALY   = 85.8188

EPHEMERIS_TYPE = 0
CLASSIFICATION_TYPE = U
NORAD_CAT_ID   = 66083
ELEMENT_SET_NO = 999
REV_AT_EPOCH   = 391
BSTAR          = -.22461752E-1
MEAN_MOTION_DOT = -.1930007E-1
MEAN_MOTION_DDOT = 0

CCSDS_OMM_VERS = 2.0
CREATION_DATE  = 
ORIGINATOR     = 

OBJECT_NAME    = STARLINK-35379
OBJECT_ID      = 2025-235AC
CENTER_NAME    = EARTH
REF_FRAME      = TEME
TIME_SYSTEM    = UTC
MEAN_ELEMENT_THEORY = SGP/SGP4

EPOCH          = 2025-11-05T22:00:01.999584
MEAN_MOTION    = 15.64276096
ECCENTRICITY   = .00011966
INCLINATION    = 53.1601
RA_OF_ASC_NODE = 103.2715
ARG_OF_PERICENTER = 60.9920
MEAN_ANOMALY   = 84.8808

EPHEMERIS_TYPE = 0
CLASSIFICATION_TYPE = U
NORAD_CAT_ID   = 66084
ELEMENT_SET_NO = 999
REV_AT_EPOCH   = 395
BSTAR          = -.22492948E-1
MEAN_MOTION_DOT = -.1932487E-1
MEAN_MOTION_DDOT = 0

CCSDS_OMM_VERS = 2.0
CREATION_DATE  = 
ORIGINATOR     = 

OBJECT_NAME    = STARLINK-35370
OBJECT_ID      = 2025-235AD
CENTER_NAME    = EARTH
REF_FRAME      = TEME
TIME_SYSTEM    = UTC
MEAN_ELEMENT_THEORY = SGP/SGP4

EPOCH          = 2025-11-05T22:00:01.999584
MEAN_MOTION    = 15.64278731
ECCENTRICITY   = .0001142
INCLINATION    = 53.1601
RA_OF_ASC_NODE = 103.2673
ARG_OF_PERICENTER = 64.0121
MEAN_ANOMALY   = 83.7768

EPHEMERIS_TYPE = 0
CLASSIFICATION_TYPE = U
NORAD_CAT_ID   = 66085
ELEMENT_SET_NO = 999
REV_AT_EPOCH   = 391
BSTAR          = -.22542593E-1
MEAN_MOTION_DOT = -.1936393E-1
MEAN_MOTION_DDOT = 0

CCSDS_OMM_VERS = 2.0
CREATION_DATE  = 
ORIGINATOR     = 

OBJECT_NAME    = STARLINK-35596
OBJECT_ID      = 2025-236A
CENTER_NAME    = EARTH
REF_FRAME      = TEME
TIME_SYSTEM    = UTC
MEAN_ELEMENT_THEORY = SGP/SGP4

EPOCH          = 2025-11-05T22:00:01.999584
MEAN_MOTION    = 15.74106928
ECCENTRICITY   = .00008125
INCLINATION    = 53.1574
RA_OF_ASC_NODE = 322.9359
ARG_OF_PERICENTER = 72.2733
MEAN_ANOMALY   = 28.8529

EPHEMERIS_TYPE = 0
CLASSIFICATION_TYPE = U
NORAD_CAT_ID   = 66086
ELEMENT_SET_NO = 999
REV_AT_EPOCH   = 395
BSTAR          = .82407385E-3
MEAN_MOTION_DOT = .121378E-2
MEAN_MOTION_DDOT = 0

