STARLINK-35131          
1 66075U 25235T   25309.91668981 -.01932902  00000+0 -22498-1 0  9991
2 66075  53.1603 103.3000 0001205  60.0063  72.4480 15.64276758  3957
STARLINK-34801          
1 66076U 25235U   25309.91668981 -.01933847  00000+0 -22509-1 0  9994
2 66076  53.1601 103.3086 0001197  61.4212  67.1969 15.64278726  3951
STARLINK-35129          
1 66077U 25235V   25309.91668981 -.01936039  00000+0 -22538-1 0  9993
2 66077  53.1603 103.3051 0001183  59.4292  71.1086 15.64278281  3957
STARLINK-35116          
1 66078U 25235W   25309.91668981 -.01933827  00000+0 -22508-1 0  9993
2 66078  53.1600 103.2914 0001222  59.8368  76.4492 15.64278373  3955
STARLINK-35402          
1 66079U 25235X   25309.91668981 -.01937272  00000+0 -22553-1 0  9992
2 66079  53.1602 103.2878 0001237  58.5876  79.6179 15.64278716  3951
STARLINK-35325          
1 66080U 25235Y   25309.91668981 -.01933125  00000+0 -22501-1 0  9990
2 66080  53.1600 103.2952 0001208  60.2276  74.1436 15.64276796  3958
STARLINK-35403          
1 66081U 25235Z   25309.91668981 -.01937300  00000+0 -22554-1 0  9998
2 66081  53.1602 103.2813 0001199  60.0587  81.9798 15.64279139  3950
STARLINK-35011          
1 66082U 25235AA  25309.91668981 -.01937503  00000+0 -22556-1 0  9996
2 66082  53.1600 103.2835 0001208  59.8136  80.3082 15.64279072  3955
STARLINK-35291          
1 66083U 25235AB  25309.91668981 -.01930007  00000+0 -22462-1 0  9995
2 66083  53.1600 103.2760 0001223  58.1375  85.8188 15.64274170  3914
STARLINK-35379          
1 66084U 25235AC  25309.91668981 -.01932487  00000+0 -22493-1 0  9994
2 66084  53.1601 103.2715 0001196  60.9920  84.8808 15.64276096  3953
STARLINK-35370          
1 66085U 25235AD  25309.91668981 -.01936393  00000+0 -22543-1 0  9991
2 66085  53.1601 103.2673 0001142  64.0121  83.7768 15.64278731  3913
STARLINK-35596          
1 66086U 25236A   25309.91668981  .00121378  00000+0  82407-3 0  9996
2 66086  53.1574 322.9359 0000812  72.2733  28.8529 15.74106928  3955
